ATLAS CENTAUR 2         
1 00694U 63047A   26071.58739046  .00002063  00000+0  24206-3 0  9994
2 00694  30.3512 179.4478 0547691 105.8194 260.3459 14.12078557132033
THOR AGENA D R/B        
1 00733U 64002A   26071.80150961  .00000304  00000+0  12566-3 0  9990
2 00733  99.1224  85.3086 0032013 248.7928 110.9834 14.34022454238740
SL-3 R/B                
1 00877U 64053B   26071.77143679  .00000269  00000+0  76305-4 0  9991
2 00877  65.0783 322.2029 0079846 291.2392  68.0193 14.61371044267244
SL-8 R/B                
1 02802U 67045B   26071.75831664  .00000437  00000+0  12851-3 0  9993
2 02802  74.0141 342.3593 0064354 347.9245  12.0365 14.45626039 89460
SL-8 R/B                
1 03230U 68040B   26071.77098828  .00003112  00000+0  23123-3 0  9991
2 03230  74.0314 307.3983 0023799 129.9519 230.3766 15.03279656 90479
OAO 2                   
1 03597U 68110A   26071.54257183  .00000319  00000+0  91067-4 0  9990
2 03597  34.9924 249.2945 0006043 226.4971 133.5218 14.47309825 19518
ISIS 1                  
1 03669U 69009A   26071.72904348  .00000164  00000+0  10036-3 0  9994
2 03669  88.4538 154.9773 1707807  83.0306 296.1062 11.30415411348875
SERT 2                  
1 04327U 70009A   26071.78246969  .00000012  00000+0  72403-4 0  9991
2 04327  99.2760  14.7068 0005169 148.0191 230.1845 13.58730169780317
SL-3 R/B                
1 05118U 71028B   26071.86084676  .00045734  00000+0  53170-3 0  9995
2 05118  81.2358  48.1116 0013233 271.3512  88.6225 15.61423004989168
ASTEX 1                 
1 05560U 71089A   26071.71917898  .00000605  00000+0  15373-3 0  9999
2 05560  92.7117 152.7392 0017764  76.9621 283.3566 14.50773566862744
SL-8 R/B                
1 05730U 71119B   26071.71878843  .00012068  00000+0  62831-3 0  9995
2 05730  73.8867 170.0555 0548367 136.0650 228.5495 14.37941838655923
OAO 3 (COPERNICUS)      
1 06153U 72065A   26071.67564718  .00000460  00000+0  98665-4 0  9992
2 06153  35.0053 280.3041 0006732 191.6865 224.0169 14.60001085846631
ATLAS CENTAUR R/B       
1 06155U 72065B   26071.59886755  .00001587  00000+0  21928-3 0  9991
2 06155  35.0012 288.7053 0033211  33.4821 326.7972 14.77696510841694
SL-8 R/B                
1 08459U 75112B   26071.84192784  .00000290  00000+0  10401-3 0  9990
2 08459  74.0633  13.1136 0014436 105.0100 255.2653 14.38205803632329
SL-3 R/B                
1 10114U 77057B   26071.76197178  .00015573  00000+0  32527-3 0  9997
2 10114  97.5779 243.8179 0006172 272.0995  87.9547 15.45589984668803
SEASAT 1                
1 10967U 78064A   26071.74720718  .00000292  00000+0  12017-3 0  9996
2 10967 108.0104 131.9157 0002364 284.7866  75.3017 14.46163081506954
SL-14 R/B               
1 11267U 79011B   26071.53155825  .00000689  00000+0  65468-4 0  9990
2 11267  82.5206  93.8735 0017264  51.7573 308.5197 14.91912147529205
