[{"OBJECT_NAME":"ATLAS CENTAUR 2","OBJECT_ID":"1963-047A","EPOCH":"2026-03-12T14:05:50.535744","MEAN_MOTION":14.12078557,"ECCENTRICITY":0.0547691,"INCLINATION":30.3512,"RA_OF_ASC_NODE":179.4478,"ARG_OF_PERICENTER":105.8194,"MEAN_ANOMALY":260.3459,"EPHEMERIS_TYPE":0,"CLASSIFICATION_TYPE":"U","NORAD_CAT_ID":694,"ELEMENT_SET_NO":999,"REV_AT_EPOCH":13203,"BSTAR":0.00024206,"MEAN_MOTION_DOT":2.063e-5,"MEAN_MOTION_DDOT":0},{"OBJECT_NAME":"THOR AGENA D R/B","OBJECT_ID":"1964-002A","EPOCH":"2026-03-12T19:14:10.430304","MEAN_MOTION":14.34022454,"ECCENTRICITY":0.0032013,"INCLINATION":99.1224,"RA_OF_ASC_NODE":85.3086,"ARG_OF_PERICENTER":248.7928,"MEAN_ANOMALY":110.9834,"EPHEMERIS_TYPE":0,"CLASSIFICATION_TYPE":"U","NORAD_CAT_ID":733,"ELEMENT_SET_NO":999,"REV_AT_EPOCH":23874,"BSTAR":0.00012566,"MEAN_MOTION_DOT":3.04e-6,"MEAN_MOTION_DDOT":0},{"OBJECT_NAME":"SL-3 R/B","OBJECT_ID":"1964-053B","EPOCH":"2026-03-12T18:30:52.138656","MEAN_MOTION":14.61371044,"ECCENTRICITY":0.0079846,"INCLINATION":65.0783,"RA_OF_ASC_NODE":322.2029,"ARG_OF_PERICENTER":291.2392,"MEAN_ANOMALY":68.0193,"EPHEMERIS_TYPE":0,"CLASSIFICATION_TYPE":"U","NORAD_CAT_ID":877,"ELEMENT_SET_NO":999,"REV_AT_EPOCH":26724,"BSTAR":7.6305e-5,"MEAN_MOTION_DOT":2.69e-6,"MEAN_MOTION_DDOT":0},{"OBJECT_NAME":"SL-8 R/B","OBJECT_ID":"1967-045B","EPOCH":"2026-03-12T18:11:58.557696","MEAN_MOTION":14.45626039,"ECCENTRICITY":0.0064354,"INCLINATION":74.0141,"RA_OF_ASC_NODE":342.3593,"ARG_OF_PERICENTER":347.9245,"MEAN_ANOMALY":12.0365,"EPHEMERIS_TYPE":0,"CLASSIFICATION_TYPE":"U","NORAD_CAT_ID":2802,"ELEMENT_SET_NO":999,"REV_AT_EPOCH":8946,"BSTAR":0.00012851,"MEAN_MOTION_DOT":4.37e-6,"MEAN_MOTION_DDOT":0},{"OBJECT_NAME":"SL-8 R/B","OBJECT_ID":"1968-040B","EPOCH":"2026-03-12T18:30:13.387392","MEAN_MOTION":15.03279656,"ECCENTRICITY":0.0023799,"INCLINATION":74.0314,"RA_OF_ASC_NODE":307.3983,"ARG_OF_PERICENTER":129.9519,"MEAN_ANOMALY":230.3766,"EPHEMERIS_TYPE":0,"CLASSIFICATION_TYPE":"U","NORAD_CAT_ID":3230,"ELEMENT_SET_NO":999,"REV_AT_EPOCH":9047,"BSTAR":0.00023123,"MEAN_MOTION_DOT":3.112e-5,"MEAN_MOTION_DDOT":0},{"OBJECT_NAME":"OAO 2","OBJECT_ID":"1968-110A","EPOCH":"2026-03-12T13:01:18.206112","MEAN_MOTION":14.47309825,"ECCENTRICITY":0.0006043,"INCLINATION":34.9924,"RA_OF_ASC_NODE":249.2945,"ARG_OF_PERICENTER":226.4971,"MEAN_ANOMALY":133.5218,"EPHEMERIS_TYPE":0,"CLASSIFICATION_TYPE":"U","NORAD_CAT_ID":3597,"ELEMENT_SET_NO":999,"REV_AT_EPOCH":1951,"BSTAR":9.1067e-5,"MEAN_MOTION_DOT":3.19e-6,"MEAN_MOTION_DDOT":0},{"OBJECT_NAME":"ISIS 1","OBJECT_ID":"1969-009A","EPOCH":"2026-03-12T17:29:49.356672","MEAN_MOTION":11.30415411,"ECCENTRICITY":0.1707807,"INCLINATION":88.4538,"RA_OF_ASC_NODE":154.9773,"ARG_OF_PERICENTER":83.0306,"MEAN_ANOMALY":296.1062,"EPHEMERIS_TYPE":0,"CLASSIFICATION_TYPE":"U","NORAD_CAT_ID":3669,"ELEMENT_SET_NO":999,"REV_AT_EPOCH":34887,"BSTAR":0.00010036,"MEAN_MOTION_DOT":1.64e-6,"MEAN_MOTION_DDOT":0},{"OBJECT_NAME":"SERT 2","OBJECT_ID":"1970-009A","EPOCH":"2026-03-12T18:46:45.381216","MEAN_MOTION":13.58730169,"ECCENTRICITY":0.0005169,"INCLINATION":99.276,"RA_OF_ASC_NODE":14.7068,"ARG_OF_PERICENTER":148.0191,"MEAN_ANOMALY":230.1845,"EPHEMERIS_TYPE":0,"CLASSIFICATION_TYPE":"U","NORAD_CAT_ID":4327,"ELEMENT_SET_NO":999,"REV_AT_EPOCH":78031,"BSTAR":7.2403e-5,"MEAN_MOTION_DOT":1.2e-7,"MEAN_MOTION_DDOT":0},{"OBJECT_NAME":"SL-3 R/B","OBJECT_ID":"1971-028B","EPOCH":"2026-03-12T20:39:37.160064","MEAN_MOTION":15.61423004,"ECCENTRICITY":0.0013233,"INCLINATION":81.2358,"RA_OF_ASC_NODE":48.1116,"ARG_OF_PERICENTER":271.3512,"MEAN_ANOMALY":88.6225,"EPHEMERIS_TYPE":0,"CLASSIFICATION_TYPE":"U","NORAD_CAT_ID":5118,"ELEMENT_SET_NO":999,"REV_AT_EPOCH":98916,"BSTAR":0.0005317,"MEAN_MOTION_DOT":0.00045734,"MEAN_MOTION_DDOT":0},{"OBJECT_NAME":"ASTEX 1","OBJECT_ID":"1971-089A","EPOCH":"2026-03-12T17:15:37.063872","MEAN_MOTION":14.50773566,"ECCENTRICITY":0.0017764,"INCLINATION":92.7117,"RA_OF_ASC_NODE":152.7392,"ARG_OF_PERICENTER":76.9621,"MEAN_ANOMALY":283.3566,"EPHEMERIS_TYPE":0,"CLASSIFICATION_TYPE":"U","NORAD_CAT_ID":5560,"ELEMENT_SET_NO":999,"REV_AT_EPOCH":86274,"BSTAR":0.00015373,"MEAN_MOTION_DOT":6.05e-6,"MEAN_MOTION_DDOT":0},{"OBJECT_NAME":"SL-8 R/B","OBJECT_ID":"1971-119B","EPOCH":"2026-03-12T17:15:03.320352","MEAN_MOTION":14.37941838,"ECCENTRICITY":0.0548367,"INCLINATION":73.8867,"RA_OF_ASC_NODE":170.0555,"ARG_OF_PERICENTER":136.065,"MEAN_ANOMALY":228.5495,"EPHEMERIS_TYPE":0,"CLASSIFICATION_TYPE":"U","NORAD_CAT_ID":5730,"ELEMENT_SET_NO":999,"REV_AT_EPOCH":65592,"BSTAR":0.00062831,"MEAN_MOTION_DOT":0.00012068,"MEAN_MOTION_DDOT":0},{"OBJECT_NAME":"OAO 3 (COPERNICUS)","OBJECT_ID":"1972-065A","EPOCH":"2026-03-12T16:12:55.916352","MEAN_MOTION":14.60001085,"ECCENTRICITY":0.0006732,"INCLINATION":35.0053,"RA_OF_ASC_NODE":280.3041,"ARG_OF_PERICENTER":191.6865,"MEAN_ANOMALY":224.0169,"EPHEMERIS_TYPE":0,"CLASSIFICATION_TYPE":"U","NORAD_CAT_ID":6153,"ELEMENT_SET_NO":999,"REV_AT_EPOCH":84663,"BSTAR":9.8665e-5,"MEAN_MOTION_DOT":4.6e-6,"MEAN_MOTION_DDOT":0},{"OBJECT_NAME":"ATLAS CENTAUR R/B","OBJECT_ID":"1972-065B","EPOCH":"2026-03-12T14:22:22.156320","MEAN_MOTION":14.7769651,"ECCENTRICITY":0.0033211,"INCLINATION":35.0012,"RA_OF_ASC_NODE":288.7053,"ARG_OF_PERICENTER":33.4821,"MEAN_ANOMALY":326.7972,"EPHEMERIS_TYPE":0,"CLASSIFICATION_TYPE":"U","NORAD_CAT_ID":6155,"ELEMENT_SET_NO":999,"REV_AT_EPOCH":84169,"BSTAR":0.00021928,"MEAN_MOTION_DOT":1.587e-5,"MEAN_MOTION_DDOT":0},{"OBJECT_NAME":"SL-8 R/B","OBJECT_ID":"1975-112B","EPOCH":"2026-03-12T20:12:22.565376","MEAN_MOTION":14.38205803,"ECCENTRICITY":0.0014436,"INCLINATION":74.0633,"RA_OF_ASC_NODE":13.1136,"ARG_OF_PERICENTER":105.01,"MEAN_ANOMALY":255.2653,"EPHEMERIS_TYPE":0,"CLASSIFICATION_TYPE":"U","NORAD_CAT_ID":8459,"ELEMENT_SET_NO":999,"REV_AT_EPOCH":63232,"BSTAR":0.00010401,"MEAN_MOTION_DOT":2.9e-6,"MEAN_MOTION_DDOT":0},{"OBJECT_NAME":"SL-3 R/B","OBJECT_ID":"1977-057B","EPOCH":"2026-03-12T18:17:14.361792","MEAN_MOTION":15.45589984,"ECCENTRICITY":0.0006172,"INCLINATION":97.5779,"RA_OF_ASC_NODE":243.8179,"ARG_OF_PERICENTER":272.0995,"MEAN_ANOMALY":87.9547,"EPHEMERIS_TYPE":0,"CLASSIFICATION_TYPE":"U","NORAD_CAT_ID":10114,"ELEMENT_SET_NO":999,"REV_AT_EPOCH":66880,"BSTAR":0.00032527,"MEAN_MOTION_DOT":0.00015573,"MEAN_MOTION_DDOT":0},{"OBJECT_NAME":"SEASAT 1","OBJECT_ID":"1978-064A","EPOCH":"2026-03-12T17:55:58.700352","MEAN_MOTION":14.46163081,"ECCENTRICITY":0.0002364,"INCLINATION":108.0104,"RA_OF_ASC_NODE":131.9157,"ARG_OF_PERICENTER":284.7866,"MEAN_ANOMALY":75.3017,"EPHEMERIS_TYPE":0,"CLASSIFICATION_TYPE":"U","NORAD_CAT_ID":10967,"ELEMENT_SET_NO":999,"REV_AT_EPOCH":50695,"BSTAR":0.00012017,"MEAN_MOTION_DOT":2.92e-6,"MEAN_MOTION_DDOT":0},{"OBJECT_NAME":"SL-14 R/B","OBJECT_ID":"1979-011B","EPOCH":"2026-03-12T12:45:26.632800","MEAN_MOTION":14.91912147,"ECCENTRICITY":0.0017264,"INCLINATION":82.5206,"RA_OF_ASC_NODE":93.8735,"ARG_OF_PERICENTER":51.7573,"MEAN_ANOMALY":308.5197,"EPHEMERIS_TYPE":0,"CLASSIFICATION_TYPE":"U","NORAD_CAT_ID":11267,"ELEMENT_SET_NO":999,"REV_AT_EPOCH":52920,"BSTAR":6.5468e-5,"MEAN_MOTION_DOT":6.89e-6,"MEAN_MOTION_DDOT":0}]
